{
  "type": "FeatureCollection",
  "features": [
    {
      "type": "Feature",
      "properties": {
        "norad_id": 35825,
        "name": "COSMOS 2251 DEB",
        "group": "cosmos-2251-debris",
        "lat": -34.87464679678912,
        "lon": 108.80731758959566,
        "alt_km": 1085.596637190185,
        "timestamp": "2025-12-26T08:37:54.976317+00:00",
        "meta_object_name": "COSMOS 2251 DEB",
        "meta_object_id": "1993-036ASX",
        "meta_epoch": "2025-12-14T02:36:29.406816",
        "meta_mean_motion": 13.70963524,
        "meta_eccentricity": 0.03526119,
        "meta_inclination": 74.113,
        "meta_ra_of_asc_node": 140.3902,
        "meta_arg_of_pericenter": 235.9093,
        "meta_mean_anomaly": 120.8102,
        "meta_ephemeris_type": 0,
        "meta_classification_type": "U",
        "meta_norad_cat_id": 35825,
        "meta_element_set_no": 999,
        "meta_rev_at_epoch": 82527,
        "meta_bstar": 0.0023333684,
        "meta_mean_motion_dot": 3.214e-05,
        "meta_mean_motion_ddot": 0,
        "tle_line1": "1 35825U 93036ASX 25348.10867369  .00003214  00000+0  23334-2 0  9992",
        "tle_line2": "2 35825  74.1130 140.3902 0352611 235.9093 120.8102 13.70963524825277"
      },
      "geometry": {
        "type": "Point",
        "coordinates": [
          108.80731758959566,
          -34.87464679678912
        ]
      }
    },
    {
      "type": "Feature",
      "properties": {
        "norad_id": 35829,
        "name": "COSMOS 2251 DEB",
        "group": "cosmos-2251-debris",
        "lat": -29.464313914652415,
        "lon": 62.8055761270841,
        "alt_km": 649.259641395759,
        "timestamp": "2025-12-26T08:37:54.976327+00:00",
        "meta_object_name": "COSMOS 2251 DEB",
        "meta_object_id": "1993-036ATB",
        "meta_epoch": "2025-12-17T00:21:46.598688",
        "meta_mean_motion": 14.76400839,
        "meta_eccentricity": 0.0005573,
        "meta_inclination": 74.0249,
        "meta_ra_of_asc_node": 90.4281,
        "meta_arg_of_pericenter": 146.0686,
        "meta_mean_anomaly": 214.0846,
        "meta_ephemeris_type": 0,
        "meta_classification_type": "U",
        "meta_norad_cat_id": 35829,
        "meta_element_set_no": 999,
        "meta_rev_at_epoch": 87838,
        "meta_bstar": 0.001494418,
        "meta_mean_motion_dot": 0.00010373,
        "meta_mean_motion_ddot": 0,
        "tle_line1": "1 35829U 93036ATB 25351.01512267  .00010373  00000+0  14944-2 0  9995",
        "tle_line2": "2 35829  74.0249  90.4281 0005573 146.0686 214.0846 14.76400839878381"
      },
      "geometry": {
        "type": "Point",
        "coordinates": [
          62.8055761270841,
          -29.464313914652415
        ]
      }
    },
    {
      "type": "Feature",
      "properties": {
        "norad_id": 35830,
        "name": "COSMOS 2251 DEB",
        "group": "cosmos-2251-debris",
        "lat": -42.666033042588886,
        "lon": 77.12732329577193,
        "alt_km": 734.4757953212702,
        "timestamp": "2025-12-26T08:37:54.976337+00:00",
        "meta_object_name": "COSMOS 2251 DEB",
        "meta_object_id": "1993-036ATC",
        "meta_epoch": "2025-12-24T23:32:41.332416",
        "meta_mean_motion": 14.24062009,
        "meta_eccentricity": 0.01214238,
        "meta_inclination": 73.8614,
        "meta_ra_of_asc_node": 244.1574,
        "meta_arg_of_pericenter": 210.1431,
        "meta_mean_anomaly": 149.2692,
        "meta_ephemeris_type": 0,
        "meta_classification_type": "U",
        "meta_norad_cat_id": 35830,
        "meta_element_set_no": 999,
        "meta_rev_at_epoch": 61438,
        "meta_bstar": 0.0012045296,
        "meta_mean_motion_dot": 2.963e-05,
        "meta_mean_motion_ddot": 0,
        "tle_line1": "1 35830U 93036ATC 25358.98103394  .00002963  00000+0  12045-2 0  9993",
        "tle_line2": "2 35830  73.8614 244.1574 0121423 210.1431 149.2692 14.24062009614385"
      },
      "geometry": {
        "type": "Point",
        "coordinates": [
          77.12732329577193,
          -42.666033042588886
        ]
      }
    },
    {
      "type": "Feature",
      "properties": {
        "norad_id": 35834,
        "name": "COSMOS 2251 DEB",
        "group": "cosmos-2251-debris",
        "lat": -58.26967108263446,
        "lon": 128.08322827128325,
        "alt_km": 932.0839363778077,
        "timestamp": "2025-12-26T08:37:54.976347+00:00",
        "meta_object_name": "COSMOS 2251 DEB",
        "meta_object_id": "1993-036ATG",
        "meta_epoch": "2025-12-25T00:59:01.122144",
        "meta_mean_motion": 14.12999686,
        "meta_eccentricity": 0.01093185,
        "meta_inclination": 73.934,
        "meta_ra_of_asc_node": 282.651,
        "meta_arg_of_pericenter": 79.9529,
        "meta_mean_anomaly": 296.6913,
        "meta_ephemeris_type": 0,
        "meta_classification_type": "U",
        "meta_norad_cat_id": 35834,
        "meta_element_set_no": 999,
        "meta_rev_at_epoch": 66437,
        "meta_bstar": 0.00039327215,
        "meta_mean_motion_dot": 7.52e-06,
        "meta_mean_motion_ddot": 0,
        "tle_line1": "1 35834U 93036ATG 25359.04098521  .00000752  00000+0  39327-3 0  9997",
        "tle_line2": "2 35834  73.9340 282.6510 0109318  79.9529 296.6913 14.12999686664375"
      },
      "geometry": {
        "type": "Point",
        "coordinates": [
          128.08322827128325,
          -58.26967108263446
        ]
      }
    },
    {
      "type": "Feature",
      "properties": {
        "norad_id": 35835,
        "name": "COSMOS 2251 DEB",
        "group": "cosmos-2251-debris",
        "lat": 31.89816124483575,
        "lon": 55.29539986355282,
        "alt_km": 1061.6626889690588,
        "timestamp": "2025-12-26T08:37:54.976357+00:00",
        "meta_object_name": "COSMOS 2251 DEB",
        "meta_object_id": "1993-036ATH",
        "meta_epoch": "2025-12-24T22:57:37.404288",
        "meta_mean_motion": 13.82930513,
        "meta_eccentricity": 0.02914061,
        "meta_inclination": 74.0631,
        "meta_ra_of_asc_node": 247.8975,
        "meta_arg_of_pericenter": 26.7225,
        "meta_mean_anomaly": 334.8581,
        "meta_ephemeris_type": 0,
        "meta_classification_type": "U",
        "meta_norad_cat_id": 35835,
        "meta_element_set_no": 999,
        "meta_rev_at_epoch": 61868,
        "meta_bstar": 0.0014309898,
        "meta_mean_motion_dot": 2.142e-05,
        "meta_mean_motion_ddot": 0,
        "tle_line1": "1 35835U 93036ATH 25358.95668292  .00002142  00000+0  14310-2 0  9994",
        "tle_line2": "2 35835  74.0631 247.8975 0291406  26.7225 334.8581 13.82930513618681"
      },
      "geometry": {
        "type": "Point",
        "coordinates": [
          55.29539986355282,
          31.89816124483575
        ]
      }
    },
    {
      "type": "Feature",
      "properties": {
        "norad_id": 35836,
        "name": "COSMOS 2251 DEB",
        "group": "cosmos-2251-debris",
        "lat": 2.9268756505438405,
        "lon": 147.31571580171848,
        "alt_km": 674.5737800913412,
        "timestamp": "2025-12-26T08:37:54.976367+00:00",
        "meta_object_name": "COSMOS 2251 DEB",
        "meta_object_id": "1993-036ATJ",
        "meta_epoch": "2025-12-25T03:14:36.827808",
        "meta_mean_motion": 14.7125789,
        "meta_eccentricity": 0.0023385,
        "meta_inclination": 74.0326,
        "meta_ra_of_asc_node": 148.8553,
        "meta_arg_of_pericenter": 206.6713,
        "meta_mean_anomaly": 153.3258,
        "meta_ephemeris_type": 0,
        "meta_classification_type": "U",
        "meta_norad_cat_id": 35836,
        "meta_element_set_no": 999,
        "meta_rev_at_epoch": 63702,
        "meta_bstar": 0.0023898,
        "meta_mean_motion_dot": 0.00014813,
        "meta_mean_motion_ddot": 0,
        "tle_line1": "1 35836U 93036ATJ 25359.13514847  .00014813  00000+0  23898-2 0  9991",
        "tle_line2": "2 35836  74.0326 148.8553 0023385 206.6713 153.3258 14.71257890637028"
      },
      "geometry": {
        "type": "Point",
        "coordinates": [
          147.31571580171848,
          2.9268756505438405
        ]
      }
    },
    {
      "type": "Feature",
      "properties": {
        "norad_id": 35837,
        "name": "COSMOS 2251 DEB",
        "group": "cosmos-2251-debris",
        "lat": 50.7340485262022,
        "lon": -154.09039937231302,
        "alt_km": 808.7430026440034,
        "timestamp": "2025-12-26T08:37:54.976378+00:00",
        "meta_object_name": "COSMOS 2251 DEB",
        "meta_object_id": "1993-036ATK",
        "meta_epoch": "2025-12-23T20:48:22.053024",
        "meta_mean_motion": 13.63560689,
        "meta_eccentricity": 0.0421934,
        "meta_inclination": 73.722,
        "meta_ra_of_asc_node": 189.1152,
        "meta_arg_of_pericenter": 108.1648,
        "meta_mean_anomaly": 317.2477,
        "meta_ephemeris_type": 0,
        "meta_classification_type": "U",
        "meta_norad_cat_id": 35837,
        "meta_element_set_no": 999,
        "meta_rev_at_epoch": 58128,
        "meta_bstar": 0.0035572,
        "meta_mean_motion_dot": 5.124e-05,
        "meta_mean_motion_ddot": 0,
        "tle_line1": "1 35837U 93036ATK 25357.86692191  .00005124  00000+0  35572-2 0  9996",
        "tle_line2": "2 35837  73.7220 189.1152 0421934 108.1648 317.2477 13.63560689581289"
      },
      "geometry": {
        "type": "Point",
        "coordinates": [
          -154.09039937231302,
          50.7340485262022
        ]
      }
    }
  ]
}